{
    "links": {
        "self": "http://www.neowsapp.com/rest/v1/neo/3837598?api_key=iIulBulltgU6a56xZRHN4H3l9WmuAYTsLGpBGhQ2"
    },
    "id": "3837598",
    "neo_reference_id": "3837598",
    "name": "(2019 AY2)",
    "designation": "2019 AY2",
    "nasa_jpl_url": "http://ssd.jpl.nasa.gov/sbdb.cgi?sstr=3837598",
    "absolute_magnitude_h": 24.7,
    "estimated_diameter": {
        "kilometers": {
            "estimated_diameter_min": 0.0305179233,
            "estimated_diameter_max": 0.0682401509
        },
        "meters": {
            "estimated_diameter_min": 30.5179232594,
            "estimated_diameter_max": 68.2401509401
        },
        "miles": {
            "estimated_diameter_min": 0.0189629525,
            "estimated_diameter_max": 0.0424024508
        },
        "feet": {
            "estimated_diameter_min": 100.1244233463,
            "estimated_diameter_max": 223.8850168104
        }
    },
    "is_potentially_hazardous_asteroid": false,
    "close_approach_data": [
        {
            "close_approach_date": "2018-12-30",
            "close_approach_date_full": "2018-Dec-30 04:23",
            "epoch_date_close_approach": 1546143780000,
            "relative_velocity": {
                "kilometers_per_second": "15.0590109059",
                "kilometers_per_hour": "54212.4392614078",
                "miles_per_hour": "33685.5014955119"
            },
            "miss_distance": {
                "astronomical": "0.0302866906",
                "lunar": "11.7815226434",
                "kilometers": "4530824.403109022",
                "miles": "2815323.7357956236"
            },
            "orbiting_body": "Earth"
        }
    ],
    "orbital_data": {
        "orbit_id": "3",
        "orbit_determination_date": "2019-07-17 06:12:49",
        "first_observation_date": "2018-12-31",
        "last_observation_date": "2019-01-06",
        "data_arc_in_days": 6,
        "observations_used": 20,
        "orbit_uncertainty": "8",
        "minimum_orbit_intersection": ".0280666",
        "jupiter_tisserand_invariant": "3.655",
        "epoch_osculation": "2458484.5",
        "eccentricity": ".516914212084762",
        "semi_major_axis": "1.940926387869711",
        "inclination": "21.34610161740624",
        "ascending_node_longitude": "281.1467054863227",
        "orbital_period": "987.6703665366198",
        "perihelion_distance": ".9376339533695163",
        "perihelion_argument": "140.5478913204924",
        "aphelion_distance": "2.944218822369906",
        "perihelion_time": "2458453.698066512317",
        "mean_anomaly": "11.22712235910213",
        "mean_motion": ".3644940783860728",
        "equinox": "J2000",
        "orbit_class": {
            "orbit_class_type": "APO",
            "orbit_class_description": "Near-Earth asteroid orbits which cross the Earth’s orbit similar to that of 1862 Apollo",
            "orbit_class_range": "a (semi-major axis) > 1.0 AU; q (perihelion) < 1.017 AU"
        }
    },
    "is_sentry_object": false
}